{
  "type": "FeatureCollection",
  "features": [
    {
      "type": "Feature",
      "properties": {
        "norad_id": 66569,
        "name": "STARLINK-35835",
        "group": "last-30-days",
        "lat": -27.503024276707432,
        "lon": -8.044785573762455,
        "alt_km": 416.75340071945175,
        "timestamp": "2025-12-09T20:37:08.056237+00:00",
        "meta_object_name": "STARLINK-35835",
        "meta_object_id": "2025-268N",
        "meta_epoch": "2025-12-09T14:00:01.999872",
        "meta_mean_motion": 15.50598218,
        "meta_eccentricity": 0.00019264,
        "meta_inclination": 43.0004,
        "meta_ra_of_asc_node": 139.6024,
        "meta_arg_of_pericenter": 267.2648,
        "meta_mean_anomaly": 214.1437,
        "meta_ephemeris_type": 0,
        "meta_classification_type": "U",
        "meta_norad_cat_id": 66569,
        "meta_element_set_no": 999,
        "meta_rev_at_epoch": 416,
        "meta_bstar": -0.0015579319,
        "meta_mean_motion_dot": -0.00090753,
        "meta_mean_motion_ddot": 0,
        "tle_line1": "1 66569U 25268N   25343.58335648 -.00090753  00000+0 -15579-2 0  9998",
        "tle_line2": "2 66569  43.0004 139.6024 0001926 267.2648 214.1437 15.50598218  4160"
      },
      "geometry": {
        "type": "Point",
        "coordinates": [
          -8.044785573762455,
          -27.503024276707432
        ]
      }
    },
    {
      "type": "Feature",
      "properties": {
        "norad_id": 66570,
        "name": "STARLINK-35834",
        "group": "last-30-days",
        "lat": -28.57413674966108,
        "lon": -6.25255238854833,
        "alt_km": 417.0125171762993,
        "timestamp": "2025-12-09T20:37:08.056247+00:00",
        "meta_object_name": "STARLINK-35834",
        "meta_object_id": "2025-268P",
        "meta_epoch": "2025-12-09T14:00:01.999872",
        "meta_mean_motion": 15.50590416,
        "meta_eccentricity": 0.00015713,
        "meta_inclination": 43.0006,
        "meta_ra_of_asc_node": 139.5965,
        "meta_arg_of_pericenter": 271.2831,
        "meta_mean_anomaly": 212.0415,
        "meta_ephemeris_type": 0,
        "meta_classification_type": "U",
        "meta_norad_cat_id": 66570,
        "meta_element_set_no": 999,
        "meta_rev_at_epoch": 416,
        "meta_bstar": -0.0011966537,
        "meta_mean_motion_dot": -0.00069949,
        "meta_mean_motion_ddot": 0,
        "tle_line1": "1 66570U 25268P   25343.58335648 -.00069949  00000+0 -11967-2 0  9990",
        "tle_line2": "2 66570  43.0006 139.5965 0001571 271.2831 212.0415 15.50590416  4167"
      },
      "geometry": {
        "type": "Point",
        "coordinates": [
          -6.25255238854833,
          -28.57413674966108
        ]
      }
    },
    {
      "type": "Feature",
      "properties": {
        "norad_id": 66571,
        "name": "STARLINK-35836",
        "group": "last-30-days",
        "lat": -29.62087662183607,
        "lon": -4.4226097921205545,
        "alt_km": 416.95280142468073,
        "timestamp": "2025-12-09T20:37:08.056257+00:00",
        "meta_object_name": "STARLINK-35836",
        "meta_object_id": "2025-268Q",
        "meta_epoch": "2025-12-09T14:00:01.999872",
        "meta_mean_motion": 15.50593006,
        "meta_eccentricity": 0.00017772,
        "meta_inclination": 43.0006,
        "meta_ra_of_asc_node": 139.5918,
        "meta_arg_of_pericenter": 270.8208,
        "meta_mean_anomaly": 214.4205,
        "meta_ephemeris_type": 0,
        "meta_classification_type": "U",
        "meta_norad_cat_id": 66571,
        "meta_element_set_no": 999,
        "meta_rev_at_epoch": 416,
        "meta_bstar": -0.0012900145,
        "meta_mean_motion_dot": -0.00075336,
        "meta_mean_motion_ddot": 0,
        "tle_line1": "1 66571U 25268Q   25343.58335648 -.00075336  00000+0 -12900-2 0  9996",
        "tle_line2": "2 66571  43.0006 139.5918 0001777 270.8208 214.4205 15.50593006  4168"
      },
      "geometry": {
        "type": "Point",
        "coordinates": [
          -4.4226097921205545,
          -29.62087662183607
        ]
      }
    },
    {
      "type": "Feature",
      "properties": {
        "norad_id": 66572,
        "name": "STARLINK-35870",
        "group": "last-30-days",
        "lat": -30.643135397895414,
        "lon": -2.5510249970133607,
        "alt_km": 417.0373610158049,
        "timestamp": "2025-12-09T20:37:08.056267+00:00",
        "meta_object_name": "STARLINK-35870",
        "meta_object_id": "2025-268R",
        "meta_epoch": "2025-12-09T14:00:01.999872",
        "meta_mean_motion": 15.50597311,
        "meta_eccentricity": 0.00017675,
        "meta_inclination": 43.0006,
        "meta_ra_of_asc_node": 139.5883,
        "meta_arg_of_pericenter": 273.6575,
        "meta_mean_anomaly": 213.5011,
        "meta_ephemeris_type": 0,
        "meta_classification_type": "U",
        "meta_norad_cat_id": 66572,
        "meta_element_set_no": 999,
        "meta_rev_at_epoch": 416,
        "meta_bstar": -0.0014354354,
        "meta_mean_motion_dot": -0.00083714,
        "meta_mean_motion_ddot": 0,
        "tle_line1": "1 66572U 25268R   25343.58335648 -.00083714  00000+0 -14354-2 0  9991",
        "tle_line2": "2 66572  43.0006 139.5883 0001767 273.6575 213.5011 15.50597311  4165"
      },
      "geometry": {
        "type": "Point",
        "coordinates": [
          -2.5510249970133607,
          -30.643135397895414
        ]
      }
    },
    {
      "type": "Feature",
      "properties": {
        "norad_id": 66573,
        "name": "STARLINK-35650",
        "group": "last-30-days",
        "lat": -31.634439354274964,
        "lon": -0.6490868662631021,
        "alt_km": 417.026193689464,
        "timestamp": "2025-12-09T20:37:08.056279+00:00",
        "meta_object_name": "STARLINK-35650",
        "meta_object_id": "2025-268S",
        "meta_epoch": "2025-12-09T14:00:01.999872",
        "meta_mean_motion": 15.50546826,
        "meta_eccentricity": 0.00023629,
        "meta_inclination": 43.0003,
        "meta_ra_of_asc_node": 139.5819,
        "meta_arg_of_pericenter": 283.3158,
        "meta_mean_anomaly": 205.7926,
        "meta_ephemeris_type": 0,
        "meta_classification_type": "U",
        "meta_norad_cat_id": 66573,
        "meta_element_set_no": 999,
        "meta_rev_at_epoch": 416,
        "meta_bstar": -0.00016167882,
        "meta_mean_motion_dot": -9.805e-05,
        "meta_mean_motion_ddot": 0,
        "tle_line1": "1 66573U 25268S   25343.58335648 -.00009805  00000+0 -16168-3 0  9997",
        "tle_line2": "2 66573  43.0003 139.5819 0002362 283.3158 205.7926 15.50546826  4162"
      },
      "geometry": {
        "type": "Point",
        "coordinates": [
          -0.6490868662631021,
          -31.634439354274964
        ]
      }
    },
    {
      "type": "Feature",
      "properties": {
        "norad_id": 66574,
        "name": "STARLINK-35812",
        "group": "last-30-days",
        "lat": -32.59642594770047,
        "lon": 1.2930683368761808,
        "alt_km": 416.7985391850116,
        "timestamp": "2025-12-09T20:37:08.056289+00:00",
        "meta_object_name": "STARLINK-35812",
        "meta_object_id": "2025-268T",
        "meta_epoch": "2025-12-09T14:00:01.999872",
        "meta_mean_motion": 15.5055966,
        "meta_eccentricity": 0.00020885,
        "meta_inclination": 43.0006,
        "meta_ra_of_asc_node": 139.5771,
        "meta_arg_of_pericenter": 266.0838,
        "meta_mean_anomaly": 224.9116,
        "meta_ephemeris_type": 0,
        "meta_classification_type": "U",
        "meta_norad_cat_id": 66574,
        "meta_element_set_no": 999,
        "meta_rev_at_epoch": 416,
        "meta_bstar": 5.3110977e-05,
        "meta_mean_motion_dot": 2.773e-05,
        "meta_mean_motion_ddot": 0,
        "tle_line1": "1 66574U 25268T   25343.58335648  .00002773  00000+0  53111-4 0  9993",
        "tle_line2": "2 66574  43.0006 139.5771 0002088 266.0838 224.9116 15.50559660  4165"
      },
      "geometry": {
        "type": "Point",
        "coordinates": [
          1.2930683368761808,
          -32.59642594770047
        ]
      }
    },
    {
      "type": "Feature",
      "properties": {
        "norad_id": 66575,
        "name": "STARLINK-35810",
        "group": "last-30-days",
        "lat": -33.53039995082465,
        "lon": 3.283641308626677,
        "alt_km": 416.89740990836344,
        "timestamp": "2025-12-09T20:37:08.056300+00:00",
        "meta_object_name": "STARLINK-35810",
        "meta_object_id": "2025-268U",
        "meta_epoch": "2025-12-09T14:00:01.999872",
        "meta_mean_motion": 15.5056395,
        "meta_eccentricity": 0.00020204,
        "meta_inclination": 43.0005,
        "meta_ra_of_asc_node": 139.5725,
        "meta_arg_of_pericenter": 268.5637,
        "meta_mean_anomaly": 224.3469,
        "meta_ephemeris_type": 0,
        "meta_classification_type": "U",
        "meta_norad_cat_id": 66575,
        "meta_element_set_no": 999,
        "meta_rev_at_epoch": 416,
        "meta_bstar": -8.3394831e-05,
        "meta_mean_motion_dot": -5.229e-05,
        "meta_mean_motion_ddot": 0,
        "tle_line1": "1 66575U 25268U   25343.58335648 -.00005229  00000+0 -83395-4 0  9992",
        "tle_line2": "2 66575  43.0005 139.5725 0002020 268.5637 224.3469 15.50563950  4166"
      },
      "geometry": {
        "type": "Point",
        "coordinates": [
          3.283641308626677,
          -33.53039995082465
        ]
      }
    }
  ]
}